OBJECT_NAME,OBJECT_ID,EPOCH,MEAN_MOTION,ECCENTRICITY,INCLINATION,RA_OF_ASC_NODE,ARG_OF_PERICENTER,MEAN_ANOMALY,EPHEMERIS_TYPE,CLASSIFICATION_TYPE,NORAD_CAT_ID,ELEMENT_SET_NO,REV_AT_EPOCH,BSTAR,MEAN_MOTION_DOT,MEAN_MOTION_DDOT
ONEWEB-0158,2021-025N,2026-06-19T11:45:20.702880,13.13471348,.00015716,87.8965,319.7585,96.7274,263.4034,0,U,48054,999,25393,.83153852E-3,.316E-5,0
ONEWEB-0157,2021-025P,2026-06-19T08:42:31.387392,13.13469745,.00021247,87.8960,319.7890,105.7714,254.3649,0,U,48055,999,25385,-.70615588E-3,-.245E-5,0
ONEWEB-0162,2021-025Q,2026-06-19T11:47:35.261376,13.13469368,.00019697,87.8960,319.7646,94.2654,265.8700,0,U,48056,999,25384,.68671906E-3,.264E-5,0
ONEWEB-0155,2021-025R,2026-06-19T08:18:08.130816,13.13469586,.00018323,87.8960,319.7898,102.9134,257.2200,0,U,48057,999,25396,.17152814E-3,.75E-6,0
ONEWEB-0149,2021-025S,2026-06-19T12:29:13.227072,13.13470831,.000201,87.8964,319.7587,93.2990,266.8369,0,U,48058,999,25379,-.54379E-3,-.186E-5,0
ONEWEB-0148,2021-025T,2026-06-19T20:44:04.379712,13.13470382,.0002413,87.8958,319.6969,92.1104,268.0301,0,U,48059,999,25396,.85888E-3,.326E-5,0
ONEWEB-0160,2021-025U,2026-06-19T08:20:33.872928,13.13470613,.00013176,87.8956,319.7959,77.2528,282.8748,0,U,48060,999,25384,.6693244E-4,.37E-6,0
ONEWEB-0163,2021-025V,2026-06-19T11:38:01.027104,13.13471054,.00019966,87.8964,319.7632,103.8359,256.2993,0,U,48061,999,25398,.77756836E-3,.297E-5,0
ONEWEB-0159,2021-025W,2026-06-19T20:34:18.700032,13.13471879,.0001858,87.8966,319.6819,100.1784,259.9554,0,U,48062,999,25395,.7243E-3,.277E-5,0
ONEWEB-0164,2021-025X,2026-06-19T20:07:29.709120,13.13470826,.0001762,87.8968,319.6926,96.8150,263.3180,0,U,48063,999,25393,-.40302E-3,-.134E-5,0
ONEWEB-0167,2021-025Y,2026-06-19T11:39:14.325408,13.13468627,.00018267,87.8956,319.7726,118.3021,241.8292,0,U,48064,999,25387,.93952131E-3,.356E-5,0
ONEWEB-0166,2021-025Z,2026-06-19T08:32:46.503456,13.13455795,.00019731,87.8963,319.7696,98.0067,262.1286,0,U,48065,999,25393,.62611479E-4,.36E-6,0
ONEWEB-0151,2021-025AA,2026-06-19T19:33:21.621312,13.13470493,.000175,87.8961,319.6951,101.4132,258.7194,0,U,48066,999,25393,-.50364E-3,-.171E-5,0
ONEWEB-0170,2021-025AB,2026-06-19T19:45:33.209856,13.13470299,.000139,87.8960,319.6956,99.7564,260.3722,0,U,48067,999,25389,-.77045E-3,-.269E-5,0
ONEWEB-0168,2021-025AC,2026-06-19T08:25:26.573664,13.13470327,.0002031,87.8965,319.7891,99.8051,260.3308,0,U,48068,999,25384,-.24558336E-3,-.77E-6,0
ONEWEB-0173,2021-025AD,2026-06-19T08:13:15.583008,13.13469927,.0001999,87.8958,319.7929,108.0761,252.0586,0,U,48069,999,25408,.42097246E-3,.166E-5,0
ONEWEB-0171,2021-025AE,2026-06-19T20:05:03.437376,13.13471305,.0001749,87.8958,319.7023,99.4278,260.7049,0,U,48070,999,25396,-.50472E-3,-.172E-5,0
ONEWEB-0172,2021-025AF,2026-06-19T19:35:47.772096,13.13468777,.0001821,87.8963,319.6964,103.0156,257.1177,0,U,48071,999,25485,-.67911E-3,-.235E-5,0
ONEWEB-0174,2021-025AG,2026-06-19T19:09:00.281088,13.13470977,.0001974,87.8959,319.6995,96.3478,263.7876,0,U,48072,999,25417,.58736E-3,.227E-5,0
ONEWEB-0175,2021-025AH,2026-06-19T19:52:52.180608,13.13473358,.0001567,87.8963,319.6780,104.7945,255.3358,0,U,48073,999,25383,-.20326E-2,-.729E-5,0
ONEWEB-0177,2021-025AJ,2026-06-19T09:11:45.215808,13.13471805,.00020614,87.8963,319.7849,99.9651,260.1711,0,U,48074,999,25396,.21487629E-4,.21E-6,0
ONEWEB-0178,2021-025AK,2026-06-19T20:36:57.047040,13.13468640,.0001799,87.8952,319.7020,105.1854,254.9474,0,U,48075,999,25407,.78707E-3,.3E-5,0
ONEWEB-0108,2021-025AL,2026-06-19T19:38:14.562240,13.13470522,.0001857,87.8965,319.6897,89.7357,270.3984,0,U,48076,999,25399,-.66046E-3,-.228E-5,0
ONEWEB-0169,2021-025AM,2026-06-19T20:24:33.831648,13.13471351,.0001936,87.8960,319.6910,96.1249,264.0101,0,U,48077,999,25265,.27938E-3,.115E-5,0
ONEWEB-0176,2021-031A,2026-06-19T16:34:51.924864,13.14503722,.0001926,87.8969,289.2003,104.8367,255.2976,0,U,48210,999,24864,.37656E-3,.152E-5,0
ONEWEB-0184,2021-031B,2026-06-19T14:06:25.731648,13.14502499,.00016574,87.8975,289.2216,126.3514,233.7769,0,U,48211,999,24860,-.62415256E-3,-.219E-5,0
ONEWEB-0179,2021-031C,2026-06-19T16:36:40.908960,14.25524343,.0218658,87.8992,286.3692,248.8965,108.8729,0,U,48212,999,24940,.10603E-3,.339E-5,0
ONEWEB-0180,2021-031D,2026-06-19T17:50:14.468928,13.14492574,.0002318,87.8976,289.1874,109.9917,250.1463,0,U,48213,999,24855,-.36028E-2,-.1323E-4,0
ONEWEB-0218,2021-031E,2026-06-19T16:32:35.156256,13.14502601,.0001969,87.8976,289.1966,127.7568,232.3740,0,U,48214,999,24870,.2663E-3,.112E-5,0
ONEWEB-0209,2021-031F,2026-06-19T14:26:58.518816,13.14502312,.00021557,87.8967,289.2309,103.0974,257.0396,0,U,48215,999,24869,-.10168593E-3,-.25E-6,0
