ONEWEB-0158             
1 48054U 21025N   26170.48982295  .00000316  00000+0  83154-3 0  9997
2 48054  87.8965 319.7585 0001571  96.7274 263.4034 13.13471348253932
ONEWEB-0157             
1 48055U 21025P   26170.36286328 -.00000245  00000+0 -70616-3 0  9991
2 48055  87.8960 319.7890 0002124 105.7714 254.3649 13.13469745253852
ONEWEB-0162             
1 48056U 21025Q   26170.49138034  .00000264  00000+0  68672-3 0  9994
2 48056  87.8960 319.7646 0001969  94.2654 265.8700 13.13469368253848
ONEWEB-0155             
1 48057U 21025R   26170.34592744  .00000075  00000+0  17153-3 0  9999
2 48057  87.8960 319.7898 0001832 102.9134 257.2200 13.13469586253962
ONEWEB-0149             
1 48058U 21025S   26170.52029198 -.00000186  00000+0 -54379-3 0  9994
2 48058  87.8964 319.7587 0002010  93.2990 266.8369 13.13470831253791
ONEWEB-0148             
1 48059U 21025T   26170.86393958  .00000326  00000+0  85888-3 0  9993
2 48059  87.8958 319.6969 0002413  92.1104 268.0301 13.13470382253960
ONEWEB-0160             
1 48060U 21025U   26170.34761427  .00000037  00000+0  66932-4 0  9997
2 48060  87.8956 319.7959 0001317  77.2528 282.8748 13.13470613253849
ONEWEB-0163             
1 48061U 21025V   26170.48473411  .00000297  00000+0  77757-3 0  9990
2 48061  87.8964 319.7632 0001996 103.8359 256.2993 13.13471054253980
ONEWEB-0159             
1 48062U 21025W   26170.85716088  .00000277  00000+0  72430-3 0  9993
2 48062  87.8966 319.6819 0001858 100.1784 259.9554 13.13471879253953
ONEWEB-0164             
1 48063U 21025X   26170.83853830 -.00000134  00000+0 -40302-3 0  9996
2 48063  87.8968 319.6926 0001762  96.8150 263.3180 13.13470826253930
ONEWEB-0167             
1 48064U 21025Y   26170.48558247  .00000356  00000+0  93952-3 0  9995
2 48064  87.8956 319.7726 0001826 118.3021 241.8292 13.13468627253879
ONEWEB-0166             
1 48065U 21025Z   26170.35609379  .00000036  00000+0  62611-4 0  9999
2 48065  87.8963 319.7696 0001973  98.0067 262.1286 13.13455795253939
ONEWEB-0151             
1 48066U 21025AA  26170.81483358 -.00000171  00000+0 -50364-3 0  9991
2 48066  87.8961 319.6951 0001750 101.4132 258.7194 13.13470493253937
ONEWEB-0170             
1 48067U 21025AB  26170.82330104 -.00000269  00000+0 -77045-3 0  9996
2 48067  87.8960 319.6956 0001390  99.7564 260.3722 13.13470299253895
ONEWEB-0168             
1 48068U 21025AC  26170.35100201 -.00000077  00000+0 -24558-3 0  9996
2 48068  87.8965 319.7891 0002031  99.8051 260.3308 13.13470327253842
ONEWEB-0173             
1 48069U 21025AD  26170.34254147  .00000166  00000+0  42097-3 0  9990
2 48069  87.8958 319.7929 0001999 108.0761 252.0586 13.13469927254087
ONEWEB-0171             
1 48070U 21025AE  26170.83684534 -.00000172  00000+0 -50472-3 0  9998
2 48070  87.8958 319.7023 0001749  99.4278 260.7049 13.13471305253962
ONEWEB-0172             
1 48071U 21025AF  26170.81652514 -.00000235  00000+0 -67911-3 0  9996
2 48071  87.8963 319.6964 0001821 103.0156 257.1177 13.13468777254850
ONEWEB-0174             
1 48072U 21025AG  26170.79791992  .00000227  00000+0  58736-3 0  9992
2 48072  87.8959 319.6995 0001974  96.3478 263.7876 13.13470977254179
ONEWEB-0175             
1 48073U 21025AH  26170.82838172 -.00000729  00000+0 -20326-2 0  9991
2 48073  87.8963 319.6780 0001567 104.7945 255.3358 13.13473358253838
ONEWEB-0177             
1 48074U 21025AJ  26170.38316222  .00000021  00000+0  21488-4 0  9995
2 48074  87.8963 319.7849 0002061  99.9651 260.1711 13.13471805253961
ONEWEB-0178             
1 48075U 21025AK  26170.85899360  .00000300  00000+0  78707-3 0  9992
2 48075  87.8952 319.7020 0001799 105.1854 254.9474 13.13468640254076
ONEWEB-0108             
1 48076U 21025AL  26170.81822410 -.00000228  00000+0 -66046-3 0  9995
2 48076  87.8965 319.6897 0001857  89.7357 270.3984 13.13470522253992
ONEWEB-0169             
1 48077U 21025AM  26170.85039157  .00000115  00000+0  27938-3 0  9998
2 48077  87.8960 319.6910 0001936  96.1249 264.0101 13.13471351252658
ONEWEB-0176             
1 48210U 21031A   26170.69087876  .00000152  00000+0  37656-3 0  9996
2 48210  87.8969 289.2003 0001926 104.8367 255.2976 13.14503722248643
ONEWEB-0184             
1 48211U 21031B   26170.58779782 -.00000219  00000+0 -62415-3 0  9996
2 48211  87.8975 289.2216 0001657 126.3514 233.7769 13.14502499248608
ONEWEB-0179             
1 48212U 21031C   26170.69214015  .00000339  00000+0  10603-3 0  9995
2 48212  87.8992 286.3692 0218658 248.8965 108.8729 14.25524343249407
ONEWEB-0180             
1 48213U 21031D   26170.74322302 -.00001323  00000+0 -36028-2 0  9995
2 48213  87.8976 289.1874 0002318 109.9917 250.1463 13.14492574248559
ONEWEB-0218             
1 48214U 21031E   26170.68929579  .00000112  00000+0  26630-3 0  9990
2 48214  87.8976 289.1966 0001969 127.7568 232.3740 13.14502601248703
ONEWEB-0209             
1 48215U 21031F   26170.60206619 -.00000025  00000+0 -10169-3 0  9991
2 48215  87.8967 289.2309 0002155 103.0974 257.0396 13.14502312248690
